<?xml version="1.0" encoding="UTF-8" standalone="no" ?>
<gpx xmlns="http://www.topografix.com/GPX/1/1" creator="www.plotaroute.com" version="1.1"  xmlns:xsi="http://www.w3.org/2001/XMLSchema-instance" xsi:schemaLocation="http://www.topografix.com/GPX/1/1 http://www.topografix.com/GPX/1/1/gpx.xsd">
<metadata>
<desc>Route created on plotaroute.com</desc>
</metadata>
<wpt lat="56.357841" lon="-3.993343">
<time>2024-12-04T00:00:00Z</time>
<name>Start on </name>
<cmt>Start on </cmt>
<desc>Start on </desc>
<sym>Flag, Blue</sym>
<type>Waypoint</type>
</wpt>
<wpt lat="56.355459" lon="-3.994636">
<time>2024-12-04T00:02:15Z</time>
<name>Turn right</name>
<cmt>Turn right</cmt>
<desc>Turn right</desc>
<sym>Right</sym>
<type>Waypoint</type>
</wpt>
<wpt lat="56.35553" lon="-3.993891">
<time>2024-12-04T00:06:47Z</time>
<name>Turn right</name>
<cmt>Turn right</cmt>
<desc>Turn right</desc>
<sym>Right</sym>
<type>Waypoint</type>
</wpt>
<wpt lat="56.354028" lon="-3.992224">
<time>2024-12-04T00:07:58Z</time>
<name>Turn right</name>
<cmt>Turn right</cmt>
<desc>Turn right</desc>
<sym>Right</sym>
<type>Waypoint</type>
</wpt>
<wpt lat="56.341966" lon="-4.015606">
<time>2024-12-04T00:20:24Z</time>
<name>Turn sharp</name>
<cmt>Turn sharp left</cmt>
<desc>Turn sharp left</desc>
<sym>Left_sharp</sym>
<type>Waypoint</type>
</wpt>
<wpt lat="56.338765" lon="-3.980551">
<time>2024-12-04T00:34:15Z</time>
<name>Turn left </name>
<cmt>Turn left onto Langside Road, B827</cmt>
<desc>Turn left onto Langside Road, B827</desc>
<sym>Left</sym>
<type>Waypoint</type>
</wpt>
<wpt lat="56.274125" lon="-3.874457">
<time>2024-12-04T01:42:10Z</time>
<name>Turn sharp</name>
<cmt>Turn sharp left onto A822</cmt>
<desc>Turn sharp left onto A822</desc>
<sym>Left_sharp</sym>
<type>Waypoint</type>
</wpt>
<wpt lat="56.284744" lon="-3.865982">
<time>2024-12-04T01:49:56Z</time>
<name>Turn left</name>
<cmt>Turn left</cmt>
<desc>Turn left</desc>
<sym>Left</sym>
<type>Waypoint</type>
</wpt>
<wpt lat="56.300363" lon="-3.853809">
<time>2024-12-04T02:01:18Z</time>
<name>Turn left</name>
<cmt>Turn left</cmt>
<desc>Turn left</desc>
<sym>Left</sym>
<type>Waypoint</type>
</wpt>
<wpt lat="56.326866" lon="-3.878335">
<time>2024-12-04T02:25:06Z</time>
<name>Turn left</name>
<cmt>Turn left</cmt>
<desc>Turn left</desc>
<sym>Left</sym>
<type>Waypoint</type>
</wpt>
<wpt lat="56.345255" lon="-3.884656">
<time>2024-12-04T02:38:17Z</time>
<name>Turn sharp</name>
<cmt>Turn sharp right onto Balloch Road</cmt>
<desc>Turn sharp right onto Balloch Road</desc>
<sym>Right_sharp</sym>
<type>Waypoint</type>
</wpt>
<wpt lat="56.359479" lon="-3.849519">
<time>2024-12-04T02:56:32Z</time>
<name>Turn sharp</name>
<cmt>Turn sharp left onto Muthill Road, A822</cmt>
<desc>Turn sharp left onto Muthill Road, A822</desc>
<sym>Left_sharp</sym>
<type>Waypoint</type>
</wpt>
<wpt lat="56.366215" lon="-3.852794">
<time>2024-12-04T03:01:12Z</time>
<name>Turn left </name>
<cmt>Turn left onto South Crieff Road</cmt>
<desc>Turn left onto South Crieff Road</desc>
<sym>Left</sym>
<type>Waypoint</type>
</wpt>
<wpt lat="56.368136" lon="-3.977327">
<time>2024-12-04T03:51:58Z</time>
<name>Turn right</name>
<cmt>Turn right onto Strowan Road</cmt>
<desc>Turn right onto Strowan Road</desc>
<sym>Right</sym>
<type>Waypoint</type>
</wpt>
<wpt lat="56.373785" lon="-3.981895">
<time>2024-12-04T03:56:07Z</time>
<name>Turn left </name>
<cmt>Turn left onto Strowan Road</cmt>
<desc>Turn left onto Strowan Road</desc>
<sym>Left</sym>
<type>Waypoint</type>
</wpt>
<wpt lat="56.373257" lon="-3.986961">
<time>2024-12-04T03:58:05Z</time>
<name>Turn left </name>
<cmt>Turn left onto Dalginross, B827</cmt>
<desc>Turn left onto Dalginross, B827</desc>
<sym>Left</sym>
<type>Waypoint</type>
</wpt>
<wpt lat="56.367097" lon="-3.982386">
<time>2024-12-04T04:02:36Z</time>
<name>Turn sligh</name>
<cmt>Turn slight right onto Braco Road, B827</cmt>
<desc>Turn slight right onto Braco Road, B827</desc>
<sym>Right_slight</sym>
<type>Waypoint</type>
</wpt>
<wpt lat="56.356729" lon="-3.987263">
<time>2024-12-04T04:10:16Z</time>
<name>Keep right</name>
<cmt>Keep right</cmt>
<desc>Keep right</desc>
<sym>Straight</sym>
<type>Waypoint</type>
</wpt>
<wpt lat="56.354028" lon="-3.992224">
<time>2024-12-04T04:12:54Z</time>
<name>Turn sharp</name>
<cmt>Turn sharp right</cmt>
<desc>Turn sharp right</desc>
<sym>Right_sharp</sym>
<type>Waypoint</type>
</wpt>
<wpt lat="56.355359" lon="-3.993706">
<time>2024-12-04T04:13:57Z</time>
<name>FINISH</name>
<cmt>FINISH</cmt>
<desc>FINISH</desc>
<sym>Flag, Blue</sym>
<type>Waypoint</type>
</wpt>
<wpt lat="56.3553617" lon="-3.9937127">
<time>2024-12-04T00:00:00Z</time>
<name>FINISH</name>
<cmt>FINISH</cmt>
<desc>FINISH</desc>
<sym>Flag, Blue</sym>
<type>Waypoint</type>
</wpt>
<wpt lat="56.3578449" lon="-3.9933413">
<time>2024-12-04T00:00:00Z</time>
<name>START</name>
<cmt>START</cmt>
<desc>START</desc>
<sym>Flag, Blue</sym>
<type>Waypoint</type>
</wpt>
<trk>
<name>Strathearn Marathon Complete</name>
<trkseg>
<trkpt lat="56.357841" lon="-3.993343">
<ele>72</ele>
<time>2024-12-04T00:00:00Z</time></trkpt>
<trkpt lat="56.357841" lon="-3.993343">
<ele>72</ele>
<time>2024-12-04T00:00:00Z</time></trkpt>
<trkpt lat="56.357841" lon="-3.993343">
<ele>72</ele>
<time>2024-12-04T00:00:00Z</time></trkpt>
<trkpt lat="56.356952" lon="-3.99235">
<ele>74</ele>
<time>2024-12-04T00:00:42Z</time></trkpt>
<trkpt lat="56.3566155" lon="-3.9922026">
<ele>74</ele>
<time>2024-12-04T00:00:56Z</time></trkpt>
<trkpt lat="56.3564867" lon="-3.9925942">
<ele>74</ele>
<time>2024-12-04T00:01:06Z</time></trkpt>
<trkpt lat="56.3562519" lon="-3.9923957">
<ele>76</ele>
<time>2024-12-04T00:01:16Z</time></trkpt>
<trkpt lat="56.3561732" lon="-3.9925299">
<ele>78</ele>
<time>2024-12-04T00:01:21Z</time></trkpt>
<trkpt lat="56.356173" lon="-3.99253">
<ele>78</ele>
<time>2024-12-04T00:01:21Z</time></trkpt>
<trkpt lat="56.355951" lon="-3.993196">
<ele>78</ele>
<time>2024-12-04T00:01:38Z</time></trkpt>
<trkpt lat="56.355653" lon="-3.994023">
<ele>78</ele>
<time>2024-12-04T00:02:00Z</time></trkpt>
<trkpt lat="56.355482" lon="-3.994568">
<ele>77</ele>
<time>2024-12-04T00:02:14Z</time></trkpt>
<trkpt lat="56.355482" lon="-3.994568">
<ele>77</ele>
<time>2024-12-04T00:02:14Z</time></trkpt>
<trkpt lat="56.355459" lon="-3.994636">
<ele>77</ele>
<time>2024-12-04T00:02:15Z</time></trkpt>
<trkpt lat="56.356091" lon="-3.995299">
<ele>74</ele>
<time>2024-12-04T00:02:45Z</time></trkpt>
<trkpt lat="56.356091" lon="-3.995298">
<ele>74</ele>
<time>2024-12-04T00:02:45Z</time></trkpt>
<trkpt lat="56.356598" lon="-3.995831">
<ele>70</ele>
<time>2024-12-04T00:03:08Z</time></trkpt>
<trkpt lat="56.356598" lon="-3.995831">
<ele>70</ele>
<time>2024-12-04T00:03:08Z</time></trkpt>
<trkpt lat="56.356941" lon="-3.996206">
<ele>70</ele>
<time>2024-12-04T00:03:24Z</time></trkpt>
<trkpt lat="56.357019" lon="-3.996229">
<ele>70</ele>
<time>2024-12-04T00:03:28Z</time></trkpt>
<trkpt lat="56.35706" lon="-3.996187">
<ele>70</ele>
<time>2024-12-04T00:03:29Z</time></trkpt>
<trkpt lat="56.35723" lon="-3.995664">
<ele>70</ele>
<time>2024-12-04T00:03:43Z</time></trkpt>
<trkpt lat="56.35723" lon="-3.995664">
<ele>70</ele>
<time>2024-12-04T00:03:43Z</time></trkpt>
<trkpt lat="56.35777" lon="-3.994001">
<ele>72</ele>
<time>2024-12-04T00:04:26Z</time></trkpt>
<trkpt lat="56.35777" lon="-3.994001">
<ele>72</ele>
<time>2024-12-04T00:04:26Z</time></trkpt>
<trkpt lat="56.357892" lon="-3.993679">
<ele>72</ele>
<time>2024-12-04T00:04:34Z</time></trkpt>
<trkpt lat="56.357909" lon="-3.993581">
<ele>72</ele>
<time>2024-12-04T00:04:37Z</time></trkpt>
<trkpt lat="56.357902" lon="-3.993488">
<ele>72</ele>
<time>2024-12-04T00:04:39Z</time></trkpt>
<trkpt lat="56.357875" lon="-3.993415">
<ele>72</ele>
<time>2024-12-04T00:04:41Z</time></trkpt>
<trkpt lat="56.357875" lon="-3.993415">
<ele>72</ele>
<time>2024-12-04T00:04:41Z</time></trkpt>
<trkpt lat="56.357852" lon="-3.993356">
<ele>72</ele>
<time>2024-12-04T00:04:42Z</time></trkpt>
<trkpt lat="56.357618" lon="-3.993085">
<ele>73</ele>
<time>2024-12-04T00:04:53Z</time></trkpt>
<trkpt lat="56.356952" lon="-3.992349">
<ele>74</ele>
<time>2024-12-04T00:05:25Z</time></trkpt>
<trkpt lat="56.3566066" lon="-3.9922064">
<ele>74</ele>
<time>2024-12-04T00:05:39Z</time></trkpt>
<trkpt lat="56.3564813" lon="-3.992596">
<ele>74</ele>
<time>2024-12-04T00:05:49Z</time></trkpt>
<trkpt lat="56.3562415" lon="-3.992393">
<ele>77</ele>
<time>2024-12-04T00:06:00Z</time></trkpt>
<trkpt lat="56.3561612" lon="-3.9925271">
<ele>78</ele>
<time>2024-12-04T00:06:04Z</time></trkpt>
<trkpt lat="56.35617" lon="-3.992537">
<ele>78</ele>
<time>2024-12-04T00:06:04Z</time></trkpt>
<trkpt lat="56.355951" lon="-3.993196">
<ele>78</ele>
<time>2024-12-04T00:06:21Z</time></trkpt>
<trkpt lat="56.355731" lon="-3.993812">
<ele>78</ele>
<time>2024-12-04T00:06:38Z</time></trkpt>
<trkpt lat="56.3556159" lon="-3.9938977">
<ele>78</ele>
<time>2024-12-04T00:06:43Z</time></trkpt>
<trkpt lat="56.3555222" lon="-3.9938977">
<ele>78</ele>
<time>2024-12-04T00:06:46Z</time></trkpt>
<trkpt lat="56.355526" lon="-3.993903">
<ele>78</ele>
<time>2024-12-04T00:06:47Z</time></trkpt>
<trkpt lat="56.35553" lon="-3.993891">
<ele>78</ele>
<time>2024-12-04T00:06:47Z</time></trkpt>
<trkpt lat="56.355008" lon="-3.993319">
<ele>78</ele>
<time>2024-12-04T00:07:11Z</time></trkpt>
<trkpt lat="56.355008" lon="-3.993319">
<ele>78</ele>
<time>2024-12-04T00:07:11Z</time></trkpt>
<trkpt lat="56.354028" lon="-3.992224">
<ele>80</ele>
<time>2024-12-04T00:07:58Z</time></trkpt>
<trkpt lat="56.354026" lon="-3.992228">
<ele>80</ele>
<time>2024-12-04T00:07:58Z</time></trkpt>
<trkpt lat="56.354026" lon="-3.992228">
<ele>80</ele>
<time>2024-12-04T00:07:58Z</time></trkpt>
<trkpt lat="56.352942" lon="-3.994095">
<ele>78</ele>
<time>2024-12-04T00:08:58Z</time></trkpt>
<trkpt lat="56.351959" lon="-3.995848">
<ele>81</ele>
<time>2024-12-04T00:09:53Z</time></trkpt>
<trkpt lat="56.351599" lon="-3.996762">
<ele>82</ele>
<time>2024-12-04T00:10:18Z</time></trkpt>
<trkpt lat="56.351405" lon="-3.997482">
<ele>82</ele>
<time>2024-12-04T00:10:36Z</time></trkpt>
<trkpt lat="56.350989" lon="-3.998147">
<ele>85</ele>
<time>2024-12-04T00:10:58Z</time></trkpt>
<trkpt lat="56.350458" lon="-3.998826">
<ele>90</ele>
<time>2024-12-04T00:11:24Z</time></trkpt>
<trkpt lat="56.350142" lon="-3.99933">
<ele>92</ele>
<time>2024-12-04T00:11:41Z</time></trkpt>
<trkpt lat="56.349974" lon="-3.999677">
<ele>94</ele>
<time>2024-12-04T00:11:51Z</time></trkpt>
<trkpt lat="56.349854" lon="-4.000031">
<ele>97</ele>
<time>2024-12-04T00:12:00Z</time></trkpt>
<trkpt lat="56.349484" lon="-4.000951">
<ele>103</ele>
<time>2024-12-04T00:12:26Z</time></trkpt>
<trkpt lat="56.349189" lon="-4.001858">
<ele>103</ele>
<time>2024-12-04T00:12:49Z</time></trkpt>
<trkpt lat="56.348792" lon="-4.002723">
<ele>104</ele>
<time>2024-12-04T00:13:14Z</time></trkpt>
<trkpt lat="56.348527" lon="-4.003243">
<ele>105</ele>
<time>2024-12-04T00:13:30Z</time></trkpt>
<trkpt lat="56.34833" lon="-4.00354">
<ele>106</ele>
<time>2024-12-04T00:13:40Z</time></trkpt>
<trkpt lat="56.347933" lon="-4.004068">
<ele>109</ele>
<time>2024-12-04T00:14:00Z</time></trkpt>
<trkpt lat="56.347395" lon="-4.004665">
<ele>115</ele>
<time>2024-12-04T00:14:25Z</time></trkpt>
<trkpt lat="56.347298" lon="-4.004888">
<ele>117</ele>
<time>2024-12-04T00:14:31Z</time></trkpt>
<trkpt lat="56.34717" lon="-4.005468">
<ele>119</ele>
<time>2024-12-04T00:14:45Z</time></trkpt>
<trkpt lat="56.347096" lon="-4.005672">
<ele>119</ele>
<time>2024-12-04T00:14:51Z</time></trkpt>
<trkpt lat="56.346985" lon="-4.005891">
<ele>119</ele>
<time>2024-12-04T00:14:57Z</time></trkpt>
<trkpt lat="56.346874" lon="-4.005983">
<ele>120</ele>
<time>2024-12-04T00:15:02Z</time></trkpt>
<trkpt lat="56.346815" lon="-4.005982">
<ele>120</ele>
<time>2024-12-04T00:15:04Z</time></trkpt>
<trkpt lat="56.346755" lon="-4.005931">
<ele>120</ele>
<time>2024-12-04T00:15:07Z</time></trkpt>
<trkpt lat="56.346719" lon="-4.005871">
<ele>121</ele>
<time>2024-12-04T00:15:09Z</time></trkpt>
<trkpt lat="56.346667" lon="-4.005631">
<ele>122</ele>
<time>2024-12-04T00:15:15Z</time></trkpt>
<trkpt lat="56.346622" lon="-4.005563">
<ele>122</ele>
<time>2024-12-04T00:15:17Z</time></trkpt>
<trkpt lat="56.346558" lon="-4.005522">
<ele>123</ele>
<time>2024-12-04T00:15:20Z</time></trkpt>
<trkpt lat="56.346519" lon="-4.005535">
<ele>123</ele>
<time>2024-12-04T00:15:21Z</time></trkpt>
<trkpt lat="56.346381" lon="-4.0057">
<ele>123</ele>
<time>2024-12-04T00:15:28Z</time></trkpt>
<trkpt lat="56.346303" lon="-4.005821">
<ele>124</ele>
<time>2024-12-04T00:15:32Z</time></trkpt>
<trkpt lat="56.345835" lon="-4.006862">
<ele>132</ele>
<time>2024-12-04T00:16:02Z</time></trkpt>
<trkpt lat="56.34556" lon="-4.0076">
<ele>137</ele>
<time>2024-12-04T00:16:22Z</time></trkpt>
<trkpt lat="56.34546" lon="-4.007937">
<ele>137</ele>
<time>2024-12-04T00:16:30Z</time></trkpt>
<trkpt lat="56.345384" lon="-4.008138">
<ele>137</ele>
<time>2024-12-04T00:16:36Z</time></trkpt>
<trkpt lat="56.345229" lon="-4.00841">
<ele>138</ele>
<time>2024-12-04T00:16:44Z</time></trkpt>
<trkpt lat="56.345173" lon="-4.008476">
<ele>139</ele>
<time>2024-12-04T00:16:47Z</time></trkpt>
<trkpt lat="56.345012" lon="-4.008575">
<ele>140</ele>
<time>2024-12-04T00:16:54Z</time></trkpt>
<trkpt lat="56.34442" lon="-4.008741">
<ele>145</ele>
<time>2024-12-04T00:17:18Z</time></trkpt>
<trkpt lat="56.344255" lon="-4.008882">
<ele>146</ele>
<time>2024-12-04T00:17:25Z</time></trkpt>
<trkpt lat="56.344139" lon="-4.009069">
<ele>147</ele>
<time>2024-12-04T00:17:31Z</time></trkpt>
<trkpt lat="56.343996" lon="-4.009494">
<ele>147</ele>
<time>2024-12-04T00:17:42Z</time></trkpt>
<trkpt lat="56.343641" lon="-4.010005">
<ele>150</ele>
<time>2024-12-04T00:18:01Z</time></trkpt>
<trkpt lat="56.343482" lon="-4.010379">
<ele>151</ele>
<time>2024-12-04T00:18:11Z</time></trkpt>
<trkpt lat="56.343136" lon="-4.010979">
<ele>156</ele>
<time>2024-12-04T00:18:30Z</time></trkpt>
<trkpt lat="56.342997" lon="-4.011351">
<ele>158</ele>
<time>2024-12-04T00:18:40Z</time></trkpt>
<trkpt lat="56.342564" lon="-4.012912">
<ele>165</ele>
<time>2024-12-04T00:19:19Z</time></trkpt>
<trkpt lat="56.342099" lon="-4.014737">
<ele>170</ele>
<time>2024-12-04T00:20:04Z</time></trkpt>
<trkpt lat="56.341966" lon="-4.015606">
<ele>172</ele>
<time>2024-12-04T00:20:24Z</time></trkpt>
<trkpt lat="56.341824" lon="-4.014799">
<ele>175</ele>
<time>2024-12-04T00:20:43Z</time></trkpt>
<trkpt lat="56.341741" lon="-4.014226">
<ele>178</ele>
<time>2024-12-04T00:20:56Z</time></trkpt>
<trkpt lat="56.341757" lon="-4.014109">
<ele>178</ele>
<time>2024-12-04T00:20:58Z</time></trkpt>
<trkpt lat="56.341757" lon="-4.014109">
<ele>178</ele>
<time>2024-12-04T00:20:58Z</time></trkpt>
<trkpt lat="56.342385" lon="-4.009637">
<ele>171</ele>
<time>2024-12-04T00:22:41Z</time></trkpt>
<trkpt lat="56.342308" lon="-4.008967">
<ele>173</ele>
<time>2024-12-04T00:22:56Z</time></trkpt>
<trkpt lat="56.34227" lon="-4.007428">
<ele>173</ele>
<time>2024-12-04T00:23:30Z</time></trkpt>
<trkpt lat="56.342092" lon="-4.006538">
<ele>174</ele>
<time>2024-12-04T00:23:51Z</time></trkpt>
<trkpt lat="56.342018" lon="-4.005474">
<ele>173</ele>
<time>2024-12-04T00:24:15Z</time></trkpt>
<trkpt lat="56.341992" lon="-4.004715">
<ele>172</ele>
<time>2024-12-04T00:24:32Z</time></trkpt>
<trkpt lat="56.341992" lon="-4.003196">
<ele>169</ele>
<time>2024-12-04T00:25:06Z</time></trkpt>
<trkpt lat="56.341878" lon="-4.001925">
<ele>168</ele>
<time>2024-12-04T00:25:34Z</time></trkpt>
<trkpt lat="56.341884" lon="-3.998328">
<ele>160</ele>
<time>2024-12-04T00:26:54Z</time></trkpt>
<trkpt lat="56.342014" lon="-3.997541">
<ele>159</ele>
<time>2024-12-04T00:27:12Z</time></trkpt>
<trkpt lat="56.342412" lon="-3.995655">
<ele>155</ele>
<time>2024-12-04T00:27:57Z</time></trkpt>
<trkpt lat="56.342389" lon="-3.995297">
<ele>155</ele>
<time>2024-12-04T00:28:05Z</time></trkpt>
<trkpt lat="56.342389" lon="-3.995297">
<ele>155</ele>
<time>2024-12-04T00:28:05Z</time></trkpt>
<trkpt lat="56.342384" lon="-3.995213">
<ele>155</ele>
<time>2024-12-04T00:28:07Z</time></trkpt>
<trkpt lat="56.342311" lon="-3.994879">
<ele>155</ele>
<time>2024-12-04T00:28:15Z</time></trkpt>
<trkpt lat="56.342122" lon="-3.994314">
<ele>155</ele>
<time>2024-12-04T00:28:30Z</time></trkpt>
<trkpt lat="56.34183" lon="-3.993628">
<ele>156</ele>
<time>2024-12-04T00:28:49Z</time></trkpt>
<trkpt lat="56.341687" lon="-3.993185">
<ele>157</ele>
<time>2024-12-04T00:29:00Z</time></trkpt>
<trkpt lat="56.341619" lon="-3.99275">
<ele>157</ele>
<time>2024-12-04T00:29:10Z</time></trkpt>
<trkpt lat="56.34162" lon="-3.991653">
<ele>157</ele>
<time>2024-12-04T00:29:35Z</time></trkpt>
<trkpt lat="56.341512" lon="-3.990343">
<ele>155</ele>
<time>2024-12-04T00:30:04Z</time></trkpt>
<trkpt lat="56.341286" lon="-3.989723">
<ele>157</ele>
<time>2024-12-04T00:30:21Z</time></trkpt>
<trkpt lat="56.341102" lon="-3.989366">
<ele>159</ele>
<time>2024-12-04T00:30:31Z</time></trkpt>
<trkpt lat="56.340955" lon="-3.989158">
<ele>161</ele>
<time>2024-12-04T00:30:39Z</time></trkpt>
<trkpt lat="56.340707" lon="-3.988888">
<ele>163</ele>
<time>2024-12-04T00:30:51Z</time></trkpt>
<trkpt lat="56.340624" lon="-3.988761">
<ele>164</ele>
<time>2024-12-04T00:30:55Z</time></trkpt>
<trkpt lat="56.340553" lon="-3.988546">
<ele>165</ele>
<time>2024-12-04T00:31:00Z</time></trkpt>
<trkpt lat="56.3401" lon="-3.986415">
<ele>163</ele>
<time>2024-12-04T00:31:51Z</time></trkpt>
<trkpt lat="56.34" lon="-3.986165">
<ele>163</ele>
<time>2024-12-04T00:31:58Z</time></trkpt>
<trkpt lat="56.339724" lon="-3.98578">
<ele>163</ele>
<time>2024-12-04T00:32:12Z</time></trkpt>
<trkpt lat="56.339658" lon="-3.985634">
<ele>163</ele>
<time>2024-12-04T00:32:16Z</time></trkpt>
<trkpt lat="56.338765" lon="-3.980551">
<ele>157</ele>
<time>2024-12-04T00:34:15Z</time></trkpt>
<trkpt lat="56.338828" lon="-3.980529">
<ele>157</ele>
<time>2024-12-04T00:34:17Z</time></trkpt>
<trkpt lat="56.338828" lon="-3.980529">
<ele>157</ele>
<time>2024-12-04T00:34:17Z</time></trkpt>
<trkpt lat="56.337516" lon="-3.981204">
<ele>163</ele>
<time>2024-12-04T00:35:12Z</time></trkpt>
<trkpt lat="56.337381" lon="-3.981341">
<ele>164</ele>
<time>2024-12-04T00:35:18Z</time></trkpt>
<trkpt lat="56.336933" lon="-3.98212">
<ele>167</ele>
<time>2024-12-04T00:35:43Z</time></trkpt>
<trkpt lat="56.336653" lon="-3.982415">
<ele>169</ele>
<time>2024-12-04T00:35:56Z</time></trkpt>
<trkpt lat="56.336494" lon="-3.982445">
<ele>171</ele>
<time>2024-12-04T00:36:02Z</time></trkpt>
<trkpt lat="56.336391" lon="-3.982357">
<ele>171</ele>
<time>2024-12-04T00:36:07Z</time></trkpt>
<trkpt lat="56.336194" lon="-3.982002">
<ele>170</ele>
<time>2024-12-04T00:36:18Z</time></trkpt>
<trkpt lat="56.335886" lon="-3.981306">
<ele>170</ele>
<time>2024-12-04T00:36:38Z</time></trkpt>
<trkpt lat="56.335767" lon="-3.98113">
<ele>171</ele>
<time>2024-12-04T00:36:44Z</time></trkpt>
<trkpt lat="56.335409" lon="-3.980817">
<ele>173</ele>
<time>2024-12-04T00:37:00Z</time></trkpt>
<trkpt lat="56.335303" lon="-3.980698">
<ele>174</ele>
<time>2024-12-04T00:37:05Z</time></trkpt>
<trkpt lat="56.334911" lon="-3.979981">
<ele>175</ele>
<time>2024-12-04T00:37:27Z</time></trkpt>
<trkpt lat="56.334752" lon="-3.979747">
<ele>176</ele>
<time>2024-12-04T00:37:36Z</time></trkpt>
<trkpt lat="56.334362" lon="-3.979384">
<ele>178</ele>
<time>2024-12-04T00:37:53Z</time></trkpt>
<trkpt lat="56.333946" lon="-3.979039">
<ele>178</ele>
<time>2024-12-04T00:38:12Z</time></trkpt>
<trkpt lat="56.333564" lon="-3.97876">
<ele>178</ele>
<time>2024-12-04T00:38:28Z</time></trkpt>
<trkpt lat="56.333175" lon="-3.978304">
<ele>180</ele>
<time>2024-12-04T00:38:47Z</time></trkpt>
<trkpt lat="56.332654" lon="-3.977801">
<ele>184</ele>
<time>2024-12-04T00:39:10Z</time></trkpt>
<trkpt lat="56.332367" lon="-3.977467">
<ele>187</ele>
<time>2024-12-04T00:39:24Z</time></trkpt>
<trkpt lat="56.332172" lon="-3.977185">
<ele>187</ele>
<time>2024-12-04T00:39:34Z</time></trkpt>
<trkpt lat="56.331955" lon="-3.97699">
<ele>188</ele>
<time>2024-12-04T00:39:44Z</time></trkpt>
<trkpt lat="56.331773" lon="-3.976793">
<ele>190</ele>
<time>2024-12-04T00:39:52Z</time></trkpt>
<trkpt lat="56.3315" lon="-3.976434">
<ele>190</ele>
<time>2024-12-04T00:40:06Z</time></trkpt>
<trkpt lat="56.331373" lon="-3.976306">
<ele>191</ele>
<time>2024-12-04T00:40:12Z</time></trkpt>
<trkpt lat="56.331275" lon="-3.976249">
<ele>191</ele>
<time>2024-12-04T00:40:16Z</time></trkpt>
<trkpt lat="56.330965" lon="-3.976166">
<ele>194</ele>
<time>2024-12-04T00:40:28Z</time></trkpt>
<trkpt lat="56.330786" lon="-3.976049">
<ele>194</ele>
<time>2024-12-04T00:40:36Z</time></trkpt>
<trkpt lat="56.330637" lon="-3.975858">
<ele>195</ele>
<time>2024-12-04T00:40:43Z</time></trkpt>
<trkpt lat="56.330637" lon="-3.975858">
<ele>195</ele>
<time>2024-12-04T00:40:43Z</time></trkpt>
<trkpt lat="56.330376" lon="-3.975521">
<ele>195</ele>
<time>2024-12-04T00:40:56Z</time></trkpt>
<trkpt lat="56.330288" lon="-3.975439">
<ele>196</ele>
<time>2024-12-04T00:41:00Z</time></trkpt>
<trkpt lat="56.330071" lon="-3.975371">
<ele>197</ele>
<time>2024-12-04T00:41:09Z</time></trkpt>
<trkpt lat="56.329666" lon="-3.975434">
<ele>199</ele>
<time>2024-12-04T00:41:25Z</time></trkpt>
<trkpt lat="56.328991" lon="-3.975247">
<ele>202</ele>
<time>2024-12-04T00:41:53Z</time></trkpt>
<trkpt lat="56.328863" lon="-3.975279">
<ele>203</ele>
<time>2024-12-04T00:41:58Z</time></trkpt>
<trkpt lat="56.328776" lon="-3.975417">
<ele>203</ele>
<time>2024-12-04T00:42:02Z</time></trkpt>
<trkpt lat="56.328729" lon="-3.975561">
<ele>203</ele>
<time>2024-12-04T00:42:06Z</time></trkpt>
<trkpt lat="56.328522" lon="-3.976563">
<ele>206</ele>
<time>2024-12-04T00:42:30Z</time></trkpt>
<trkpt lat="56.328453" lon="-3.976817">
<ele>207</ele>
<time>2024-12-04T00:42:36Z</time></trkpt>
<trkpt lat="56.32802" lon="-3.977771">
<ele>210</ele>
<time>2024-12-04T00:43:04Z</time></trkpt>
<trkpt lat="56.32774" lon="-3.978622">
<ele>211</ele>
<time>2024-12-04T00:43:26Z</time></trkpt>
<trkpt lat="56.327498" lon="-3.979585">
<ele>215</ele>
<time>2024-12-04T00:43:49Z</time></trkpt>
<trkpt lat="56.327413" lon="-3.979845">
<ele>216</ele>
<time>2024-12-04T00:43:56Z</time></trkpt>
<trkpt lat="56.327207" lon="-3.98032">
<ele>217</ele>
<time>2024-12-04T00:44:09Z</time></trkpt>
<trkpt lat="56.327109" lon="-3.980469">
<ele>218</ele>
<time>2024-12-04T00:44:14Z</time></trkpt>
<trkpt lat="56.327029" lon="-3.980552">
<ele>218</ele>
<time>2024-12-04T00:44:18Z</time></trkpt>
<trkpt lat="56.326688" lon="-3.980781">
<ele>220</ele>
<time>2024-12-04T00:44:33Z</time></trkpt>
<trkpt lat="56.326512" lon="-3.981004">
<ele>220</ele>
<time>2024-12-04T00:44:41Z</time></trkpt>
<trkpt lat="56.326104" lon="-3.981657">
<ele>222</ele>
<time>2024-12-04T00:45:03Z</time></trkpt>
<trkpt lat="56.325899" lon="-3.981892">
<ele>224</ele>
<time>2024-12-04T00:45:13Z</time></trkpt>
<trkpt lat="56.32555" lon="-3.982111">
<ele>227</ele>
<time>2024-12-04T00:45:28Z</time></trkpt>
<trkpt lat="56.325278" lon="-3.982208">
<ele>228</ele>
<time>2024-12-04T00:45:39Z</time></trkpt>
<trkpt lat="56.324866" lon="-3.982222">
<ele>231</ele>
<time>2024-12-04T00:45:55Z</time></trkpt>
<trkpt lat="56.324866" lon="-3.982222">
<ele>231</ele>
<time>2024-12-04T00:45:55Z</time></trkpt>
<trkpt lat="56.324433" lon="-3.982163">
<ele>237</ele>
<time>2024-12-04T00:46:13Z</time></trkpt>
<trkpt lat="56.320922" lon="-3.980708">
<ele>231</ele>
<time>2024-12-04T00:48:37Z</time></trkpt>
<trkpt lat="56.320749" lon="-3.98067">
<ele>232</ele>
<time>2024-12-04T00:48:44Z</time></trkpt>
<trkpt lat="56.320485" lon="-3.980665">
<ele>232</ele>
<time>2024-12-04T00:48:55Z</time></trkpt>
<trkpt lat="56.319845" lon="-3.980694">
<ele>233</ele>
<time>2024-12-04T00:49:20Z</time></trkpt>
<trkpt lat="56.318964" lon="-3.98055">
<ele>233</ele>
<time>2024-12-04T00:49:56Z</time></trkpt>
<trkpt lat="56.318768" lon="-3.980465">
<ele>233</ele>
<time>2024-12-04T00:50:04Z</time></trkpt>
<trkpt lat="56.318296" lon="-3.980128">
<ele>234</ele>
<time>2024-12-04T00:50:24Z</time></trkpt>
<trkpt lat="56.318055" lon="-3.979904">
<ele>235</ele>
<time>2024-12-04T00:50:35Z</time></trkpt>
<trkpt lat="56.317629" lon="-3.979439">
<ele>235</ele>
<time>2024-12-04T00:50:55Z</time></trkpt>
<trkpt lat="56.317421" lon="-3.979241">
<ele>236</ele>
<time>2024-12-04T00:51:04Z</time></trkpt>
<trkpt lat="56.317102" lon="-3.978991">
<ele>235</ele>
<time>2024-12-04T00:51:18Z</time></trkpt>
<trkpt lat="56.316726" lon="-3.978645">
<ele>236</ele>
<time>2024-12-04T00:51:35Z</time></trkpt>
<trkpt lat="56.316455" lon="-3.978508">
<ele>235</ele>
<time>2024-12-04T00:51:47Z</time></trkpt>
<trkpt lat="56.31606" lon="-3.978224">
<ele>235</ele>
<time>2024-12-04T00:52:04Z</time></trkpt>
<trkpt lat="56.31543" lon="-3.977681">
<ele>235</ele>
<time>2024-12-04T00:52:32Z</time></trkpt>
<trkpt lat="56.314346" lon="-3.976486">
<ele>234</ele>
<time>2024-12-04T00:53:22Z</time></trkpt>
<trkpt lat="56.314134" lon="-3.976227">
<ele>233</ele>
<time>2024-12-04T00:53:33Z</time></trkpt>
<trkpt lat="56.314009" lon="-3.975964">
<ele>234</ele>
<time>2024-12-04T00:53:40Z</time></trkpt>
<trkpt lat="56.313846" lon="-3.97548">
<ele>234</ele>
<time>2024-12-04T00:53:53Z</time></trkpt>
<trkpt lat="56.313559" lon="-3.974824">
<ele>233</ele>
<time>2024-12-04T00:54:12Z</time></trkpt>
<trkpt lat="56.313482" lon="-3.974562">
<ele>233</ele>
<time>2024-12-04T00:54:18Z</time></trkpt>
<trkpt lat="56.313345" lon="-3.973809">
<ele>234</ele>
<time>2024-12-04T00:54:36Z</time></trkpt>
<trkpt lat="56.313108" lon="-3.972935">
<ele>234</ele>
<time>2024-12-04T00:54:57Z</time></trkpt>
<trkpt lat="56.312852" lon="-3.971307">
<ele>234</ele>
<time>2024-12-04T00:55:35Z</time></trkpt>
<trkpt lat="56.312729" lon="-3.969972">
<ele>235</ele>
<time>2024-12-04T00:56:05Z</time></trkpt>
<trkpt lat="56.312661" lon="-3.968774">
<ele>235</ele>
<time>2024-12-04T00:56:32Z</time></trkpt>
<trkpt lat="56.312489" lon="-3.967693">
<ele>235</ele>
<time>2024-12-04T00:56:57Z</time></trkpt>
<trkpt lat="56.312254" lon="-3.966732">
<ele>235</ele>
<time>2024-12-04T00:57:20Z</time></trkpt>
<trkpt lat="56.312108" lon="-3.96626">
<ele>236</ele>
<time>2024-12-04T00:57:32Z</time></trkpt>
<trkpt lat="56.311934" lon="-3.965862">
<ele>236</ele>
<time>2024-12-04T00:57:43Z</time></trkpt>
<trkpt lat="56.311378" lon="-3.964917">
<ele>236</ele>
<time>2024-12-04T00:58:14Z</time></trkpt>
<trkpt lat="56.311099" lon="-3.964586">
<ele>235</ele>
<time>2024-12-04T00:58:27Z</time></trkpt>
<trkpt lat="56.310735" lon="-3.964369">
<ele>235</ele>
<time>2024-12-04T00:58:43Z</time></trkpt>
<trkpt lat="56.310579" lon="-3.964243">
<ele>235</ele>
<time>2024-12-04T00:58:50Z</time></trkpt>
<trkpt lat="56.309447" lon="-3.963207">
<ele>235</ele>
<time>2024-12-04T00:59:41Z</time></trkpt>
<trkpt lat="56.309256" lon="-3.963116">
<ele>235</ele>
<time>2024-12-04T00:59:48Z</time></trkpt>
<trkpt lat="56.309051" lon="-3.963126">
<ele>235</ele>
<time>2024-12-04T00:59:57Z</time></trkpt>
<trkpt lat="56.308698" lon="-3.963203">
<ele>235</ele>
<time>2024-12-04T01:00:11Z</time></trkpt>
<trkpt lat="56.308476" lon="-3.963221">
<ele>235</ele>
<time>2024-12-04T01:00:20Z</time></trkpt>
<trkpt lat="56.308268" lon="-3.963204">
<ele>235</ele>
<time>2024-12-04T01:00:28Z</time></trkpt>
<trkpt lat="56.307594" lon="-3.962935">
<ele>235</ele>
<time>2024-12-04T01:00:56Z</time></trkpt>
<trkpt lat="56.307362" lon="-3.962787">
<ele>234</ele>
<time>2024-12-04T01:01:06Z</time></trkpt>
<trkpt lat="56.307026" lon="-3.962474">
<ele>234</ele>
<time>2024-12-04T01:01:21Z</time></trkpt>
<trkpt lat="56.306743" lon="-3.962136">
<ele>235</ele>
<time>2024-12-04T01:01:34Z</time></trkpt>
<trkpt lat="56.306144" lon="-3.961262">
<ele>235</ele>
<time>2024-12-04T01:02:05Z</time></trkpt>
<trkpt lat="56.305776" lon="-3.960791">
<ele>235</ele>
<time>2024-12-04T01:02:23Z</time></trkpt>
<trkpt lat="56.304732" lon="-3.959578">
<ele>234</ele>
<time>2024-12-04T01:03:13Z</time></trkpt>
<trkpt lat="56.304539" lon="-3.959322">
<ele>234</ele>
<time>2024-12-04T01:03:23Z</time></trkpt>
<trkpt lat="56.303992" lon="-3.958436">
<ele>234</ele>
<time>2024-12-04T01:03:52Z</time></trkpt>
<trkpt lat="56.303434" lon="-3.957592">
<ele>233</ele>
<time>2024-12-04T01:04:22Z</time></trkpt>
<trkpt lat="56.302751" lon="-3.956437">
<ele>233</ele>
<time>2024-12-04T01:04:59Z</time></trkpt>
<trkpt lat="56.302547" lon="-3.956051">
<ele>235</ele>
<time>2024-12-04T01:05:11Z</time></trkpt>
<trkpt lat="56.30209" lon="-3.95532">
<ele>234</ele>
<time>2024-12-04T01:05:35Z</time></trkpt>
<trkpt lat="56.301279" lon="-3.953755">
<ele>235</ele>
<time>2024-12-04T01:06:23Z</time></trkpt>
<trkpt lat="56.300637" lon="-3.952714">
<ele>234</ele>
<time>2024-12-04T01:06:58Z</time></trkpt>
<trkpt lat="56.300138" lon="-3.95181">
<ele>233</ele>
<time>2024-12-04T01:07:26Z</time></trkpt>
<trkpt lat="56.299925" lon="-3.951329">
<ele>234</ele>
<time>2024-12-04T01:07:40Z</time></trkpt>
<trkpt lat="56.299626" lon="-3.950507">
<ele>234</ele>
<time>2024-12-04T01:08:01Z</time></trkpt>
<trkpt lat="56.299111" lon="-3.949375">
<ele>232</ele>
<time>2024-12-04T01:08:34Z</time></trkpt>
<trkpt lat="56.298536" lon="-3.948435">
<ele>233</ele>
<time>2024-12-04T01:09:05Z</time></trkpt>
<trkpt lat="56.298206" lon="-3.947653">
<ele>233</ele>
<time>2024-12-04T01:09:27Z</time></trkpt>
<trkpt lat="56.297643" lon="-3.946472">
<ele>234</ele>
<time>2024-12-04T01:10:02Z</time></trkpt>
<trkpt lat="56.297213" lon="-3.945381">
<ele>233</ele>
<time>2024-12-04T01:10:31Z</time></trkpt>
<trkpt lat="56.296921" lon="-3.944795">
<ele>232</ele>
<time>2024-12-04T01:10:49Z</time></trkpt>
<trkpt lat="56.296413" lon="-3.943355">
<ele>234</ele>
<time>2024-12-04T01:11:27Z</time></trkpt>
<trkpt lat="56.296193" lon="-3.942356">
<ele>234</ele>
<time>2024-12-04T01:11:51Z</time></trkpt>
<trkpt lat="56.295862" lon="-3.941515">
<ele>235</ele>
<time>2024-12-04T01:12:14Z</time></trkpt>
<trkpt lat="56.295491" lon="-3.940247">
<ele>234</ele>
<time>2024-12-04T01:12:46Z</time></trkpt>
<trkpt lat="56.294303" lon="-3.936877">
<ele>233</ele>
<time>2024-12-04T01:14:14Z</time></trkpt>
<trkpt lat="56.292871" lon="-3.932393">
<ele>230</ele>
<time>2024-12-04T01:16:09Z</time></trkpt>
<trkpt lat="56.292434" lon="-3.931554">
<ele>230</ele>
<time>2024-12-04T01:16:35Z</time></trkpt>
<trkpt lat="56.291926" lon="-3.930412">
<ele>227</ele>
<time>2024-12-04T01:17:08Z</time></trkpt>
<trkpt lat="56.291685" lon="-3.929637">
<ele>228</ele>
<time>2024-12-04T01:17:27Z</time></trkpt>
<trkpt lat="56.291566" lon="-3.929194">
<ele>229</ele>
<time>2024-12-04T01:17:38Z</time></trkpt>
<trkpt lat="56.29123" lon="-3.928246">
<ele>228</ele>
<time>2024-12-04T01:18:03Z</time></trkpt>
<trkpt lat="56.290926" lon="-3.92701">
<ele>227</ele>
<time>2024-12-04T01:18:33Z</time></trkpt>
<trkpt lat="56.290806" lon="-3.925819">
<ele>228</ele>
<time>2024-12-04T01:19:00Z</time></trkpt>
<trkpt lat="56.290557" lon="-3.925106">
<ele>228</ele>
<time>2024-12-04T01:19:19Z</time></trkpt>
<trkpt lat="56.290252" lon="-3.924353">
<ele>227</ele>
<time>2024-12-04T01:19:40Z</time></trkpt>
<trkpt lat="56.290035" lon="-3.922996">
<ele>226</ele>
<time>2024-12-04T01:20:11Z</time></trkpt>
<trkpt lat="56.28947" lon="-3.920904">
<ele>223</ele>
<time>2024-12-04T01:21:03Z</time></trkpt>
<trkpt lat="56.288994" lon="-3.917823">
<ele>217</ele>
<time>2024-12-04T01:22:14Z</time></trkpt>
<trkpt lat="56.288658" lon="-3.916156">
<ele>213</ele>
<time>2024-12-04T01:22:53Z</time></trkpt>
<trkpt lat="56.28863" lon="-3.914672">
<ele>210</ele>
<time>2024-12-04T01:23:26Z</time></trkpt>
<trkpt lat="56.288582" lon="-3.914195">
<ele>212</ele>
<time>2024-12-04T01:23:37Z</time></trkpt>
<trkpt lat="56.288245" lon="-3.913725">
<ele>208</ele>
<time>2024-12-04T01:23:54Z</time></trkpt>
<trkpt lat="56.288104" lon="-3.913095">
<ele>207</ele>
<time>2024-12-04T01:24:09Z</time></trkpt>
<trkpt lat="56.28798" lon="-3.912636">
<ele>208</ele>
<time>2024-12-04T01:24:21Z</time></trkpt>
<trkpt lat="56.287625" lon="-3.912341">
<ele>205</ele>
<time>2024-12-04T01:24:36Z</time></trkpt>
<trkpt lat="56.287392" lon="-3.911337">
<ele>205</ele>
<time>2024-12-04T01:25:01Z</time></trkpt>
<trkpt lat="56.287355" lon="-3.910325">
<ele>207</ele>
<time>2024-12-04T01:25:23Z</time></trkpt>
<trkpt lat="56.286642" lon="-3.906175">
<ele>202</ele>
<time>2024-12-04T01:27:00Z</time></trkpt>
<trkpt lat="56.285883" lon="-3.903777">
<ele>196</ele>
<time>2024-12-04T01:28:01Z</time></trkpt>
<trkpt lat="56.28521" lon="-3.900023">
<ele>190</ele>
<time>2024-12-04T01:29:29Z</time></trkpt>
<trkpt lat="56.284996" lon="-3.898594">
<ele>188</ele>
<time>2024-12-04T01:30:02Z</time></trkpt>
<trkpt lat="56.284972" lon="-3.897396">
<ele>185</ele>
<time>2024-12-04T01:30:29Z</time></trkpt>
<trkpt lat="56.284933" lon="-3.897196">
<ele>184</ele>
<time>2024-12-04T01:30:33Z</time></trkpt>
<trkpt lat="56.284691" lon="-3.896417">
<ele>182</ele>
<time>2024-12-04T01:30:53Z</time></trkpt>
<trkpt lat="56.284521" lon="-3.895137">
<ele>180</ele>
<time>2024-12-04T01:31:22Z</time></trkpt>
<trkpt lat="56.284478" lon="-3.894519">
<ele>179</ele>
<time>2024-12-04T01:31:36Z</time></trkpt>
<trkpt lat="56.283892" lon="-3.891899">
<ele>175</ele>
<time>2024-12-04T01:32:39Z</time></trkpt>
<trkpt lat="56.283671" lon="-3.891275">
<ele>174</ele>
<time>2024-12-04T01:32:56Z</time></trkpt>
<trkpt lat="56.283307" lon="-3.890693">
<ele>170</ele>
<time>2024-12-04T01:33:15Z</time></trkpt>
<trkpt lat="56.282685" lon="-3.889931">
<ele>167</ele>
<time>2024-12-04T01:33:45Z</time></trkpt>
<trkpt lat="56.282271" lon="-3.889218">
<ele>166</ele>
<time>2024-12-04T01:34:08Z</time></trkpt>
<trkpt lat="56.281807" lon="-3.888037">
<ele>164</ele>
<time>2024-12-04T01:34:40Z</time></trkpt>
<trkpt lat="56.281315" lon="-3.886506">
<ele>159</ele>
<time>2024-12-04T01:35:20Z</time></trkpt>
<trkpt lat="56.281077" lon="-3.885418">
<ele>157</ele>
<time>2024-12-04T01:35:46Z</time></trkpt>
<trkpt lat="56.28074" lon="-3.885151">
<ele>155</ele>
<time>2024-12-04T01:36:01Z</time></trkpt>
<trkpt lat="56.279178" lon="-3.884393">
<ele>150</ele>
<time>2024-12-04T01:37:05Z</time></trkpt>
<trkpt lat="56.278318" lon="-3.883807">
<ele>145</ele>
<time>2024-12-04T01:37:42Z</time></trkpt>
<trkpt lat="56.277995" lon="-3.883193">
<ele>142</ele>
<time>2024-12-04T01:38:01Z</time></trkpt>
<trkpt lat="56.275782" lon="-3.878197">
<ele>143</ele>
<time>2024-12-04T01:40:23Z</time></trkpt>
<trkpt lat="56.27489" lon="-3.876305">
<ele>140</ele>
<time>2024-12-04T01:41:18Z</time></trkpt>
<trkpt lat="56.274125" lon="-3.874457">
<ele>139</ele>
<time>2024-12-04T01:42:10Z</time></trkpt>
<trkpt lat="56.27615" lon="-3.87288">
<ele>142</ele>
<time>2024-12-04T01:43:38Z</time></trkpt>
<trkpt lat="56.27615" lon="-3.872879">
<ele>142</ele>
<time>2024-12-04T01:43:38Z</time></trkpt>
<trkpt lat="56.280224" lon="-3.869706">
<ele>148</ele>
<time>2024-12-04T01:46:36Z</time></trkpt>
<trkpt lat="56.284415" lon="-3.866404">
<ele>168</ele>
<time>2024-12-04T01:49:39Z</time></trkpt>
<trkpt lat="56.284572" lon="-3.866244">
<ele>168</ele>
<time>2024-12-04T01:49:47Z</time></trkpt>
<trkpt lat="56.284744" lon="-3.865982">
<ele>169</ele>
<time>2024-12-04T01:49:56Z</time></trkpt>
<trkpt lat="56.284885" lon="-3.86601">
<ele>170</ele>
<time>2024-12-04T01:50:01Z</time></trkpt>
<trkpt lat="56.284969" lon="-3.865987">
<ele>171</ele>
<time>2024-12-04T01:50:05Z</time></trkpt>
<trkpt lat="56.297695" lon="-3.855882">
<ele>208</ele>
<time>2024-12-04T01:59:22Z</time></trkpt>
<trkpt lat="56.300363" lon="-3.853809">
<ele>191</ele>
<time>2024-12-04T02:01:18Z</time></trkpt>
<trkpt lat="56.300571" lon="-3.854565">
<ele>193</ele>
<time>2024-12-04T02:01:37Z</time></trkpt>
<trkpt lat="56.300894" lon="-3.855524">
<ele>191</ele>
<time>2024-12-04T02:02:02Z</time></trkpt>
<trkpt lat="56.301206" lon="-3.856202">
<ele>189</ele>
<time>2024-12-04T02:02:22Z</time></trkpt>
<trkpt lat="56.302005" lon="-3.857532">
<ele>192</ele>
<time>2024-12-04T02:03:05Z</time></trkpt>
<trkpt lat="56.30218" lon="-3.857758">
<ele>192</ele>
<time>2024-12-04T02:03:14Z</time></trkpt>
<trkpt lat="56.30218" lon="-3.857758">
<ele>192</ele>
<time>2024-12-04T02:03:14Z</time></trkpt>
<trkpt lat="56.304448" lon="-3.860673">
<ele>186</ele>
<time>2024-12-04T02:05:06Z</time></trkpt>
<trkpt lat="56.309528" lon="-3.867429">
<ele>165</ele>
<time>2024-12-04T02:09:19Z</time></trkpt>
<trkpt lat="56.310745" lon="-3.86935">
<ele>160</ele>
<time>2024-12-04T02:10:23Z</time></trkpt>
<trkpt lat="56.311144" lon="-3.870029">
<ele>158</ele>
<time>2024-12-04T02:10:45Z</time></trkpt>
<trkpt lat="56.311311" lon="-3.870672">
<ele>157</ele>
<time>2024-12-04T02:11:01Z</time></trkpt>
<trkpt lat="56.311463" lon="-3.871736">
<ele>157</ele>
<time>2024-12-04T02:11:26Z</time></trkpt>
<trkpt lat="56.311694" lon="-3.871995">
<ele>156</ele>
<time>2024-12-04T02:11:36Z</time></trkpt>
<trkpt lat="56.312019" lon="-3.872039">
<ele>154</ele>
<time>2024-12-04T02:11:50Z</time></trkpt>
<trkpt lat="56.312487" lon="-3.871985">
<ele>152</ele>
<time>2024-12-04T02:12:08Z</time></trkpt>
<trkpt lat="56.313976" lon="-3.871635">
<ele>149</ele>
<time>2024-12-04T02:13:09Z</time></trkpt>
<trkpt lat="56.314709" lon="-3.871511">
<ele>144</ele>
<time>2024-12-04T02:13:38Z</time></trkpt>
<trkpt lat="56.315688" lon="-3.871455">
<ele>137</ele>
<time>2024-12-04T02:14:17Z</time></trkpt>
<trkpt lat="56.316437" lon="-3.871453">
<ele>133</ele>
<time>2024-12-04T02:14:47Z</time></trkpt>
<trkpt lat="56.316635" lon="-3.871494">
<ele>132</ele>
<time>2024-12-04T02:14:55Z</time></trkpt>
<trkpt lat="56.318232" lon="-3.871658">
<ele>122</ele>
<time>2024-12-04T02:15:59Z</time></trkpt>
<trkpt lat="56.320015" lon="-3.871977">
<ele>114</ele>
<time>2024-12-04T02:17:11Z</time></trkpt>
<trkpt lat="56.320116" lon="-3.872056">
<ele>113</ele>
<time>2024-12-04T02:17:16Z</time></trkpt>
<trkpt lat="56.320169" lon="-3.87229">
<ele>113</ele>
<time>2024-12-04T02:17:21Z</time></trkpt>
<trkpt lat="56.320108" lon="-3.874606">
<ele>113</ele>
<time>2024-12-04T02:18:13Z</time></trkpt>
<trkpt lat="56.320128" lon="-3.876041">
<ele>113</ele>
<time>2024-12-04T02:18:45Z</time></trkpt>
<trkpt lat="56.320326" lon="-3.879132">
<ele>112</ele>
<time>2024-12-04T02:19:54Z</time></trkpt>
<trkpt lat="56.320254" lon="-3.880019">
<ele>112</ele>
<time>2024-12-04T02:20:14Z</time></trkpt>
<trkpt lat="56.320375" lon="-3.880578">
<ele>110</ele>
<time>2024-12-04T02:20:27Z</time></trkpt>
<trkpt lat="56.320506" lon="-3.880796">
<ele>109</ele>
<time>2024-12-04T02:20:34Z</time></trkpt>
<trkpt lat="56.320549" lon="-3.880837">
<ele>108</ele>
<time>2024-12-04T02:20:36Z</time></trkpt>
<trkpt lat="56.320764" lon="-3.880903">
<ele>109</ele>
<time>2024-12-04T02:20:45Z</time></trkpt>
<trkpt lat="56.32099" lon="-3.880882">
<ele>110</ele>
<time>2024-12-04T02:20:54Z</time></trkpt>
<trkpt lat="56.321801" lon="-3.88042">
<ele>115</ele>
<time>2024-12-04T02:21:28Z</time></trkpt>
<trkpt lat="56.323431" lon="-3.879791">
<ele>124</ele>
<time>2024-12-04T02:22:35Z</time></trkpt>
<trkpt lat="56.324448" lon="-3.879641">
<ele>128</ele>
<time>2024-12-04T02:23:16Z</time></trkpt>
<trkpt lat="56.326051" lon="-3.879445">
<ele>138</ele>
<time>2024-12-04T02:24:20Z</time></trkpt>
<trkpt lat="56.326378" lon="-3.879426">
<ele>139</ele>
<time>2024-12-04T02:24:33Z</time></trkpt>
<trkpt lat="56.326461" lon="-3.879395">
<ele>140</ele>
<time>2024-12-04T02:24:37Z</time></trkpt>
<trkpt lat="56.326524" lon="-3.879334">
<ele>140</ele>
<time>2024-12-04T02:24:40Z</time></trkpt>
<trkpt lat="56.326627" lon="-3.879116">
<ele>141</ele>
<time>2024-12-04T02:24:46Z</time></trkpt>
<trkpt lat="56.326732" lon="-3.878774">
<ele>141</ele>
<time>2024-12-04T02:24:55Z</time></trkpt>
<trkpt lat="56.326732" lon="-3.878774">
<ele>141</ele>
<time>2024-12-04T02:24:55Z</time></trkpt>
<trkpt lat="56.326866" lon="-3.878335">
<ele>141</ele>
<time>2024-12-04T02:25:06Z</time></trkpt>
<trkpt lat="56.326942" lon="-3.878419">
<ele>142</ele>
<time>2024-12-04T02:25:09Z</time></trkpt>
<trkpt lat="56.327897" lon="-3.878724">
<ele>150</ele>
<time>2024-12-04T02:25:48Z</time></trkpt>
<trkpt lat="56.328759" lon="-3.879062">
<ele>155</ele>
<time>2024-12-04T02:26:23Z</time></trkpt>
<trkpt lat="56.330906" lon="-3.879772">
<ele>160</ele>
<time>2024-12-04T02:27:51Z</time></trkpt>
<trkpt lat="56.331326" lon="-3.879678">
<ele>160</ele>
<time>2024-12-04T02:28:08Z</time></trkpt>
<trkpt lat="56.33379" lon="-3.879272">
<ele>159</ele>
<time>2024-12-04T02:29:47Z</time></trkpt>
<trkpt lat="56.336755" lon="-3.882008">
<ele>139</ele>
<time>2024-12-04T02:32:01Z</time></trkpt>
<trkpt lat="56.337314" lon="-3.882497">
<ele>136</ele>
<time>2024-12-04T02:32:25Z</time></trkpt>
<trkpt lat="56.337466" lon="-3.882543">
<ele>137</ele>
<time>2024-12-04T02:32:32Z</time></trkpt>
<trkpt lat="56.339033" lon="-3.883809">
<ele>143</ele>
<time>2024-12-04T02:33:40Z</time></trkpt>
<trkpt lat="56.339202" lon="-3.883856">
<ele>144</ele>
<time>2024-12-04T02:33:47Z</time></trkpt>
<trkpt lat="56.339744" lon="-3.883215">
<ele>138</ele>
<time>2024-12-04T02:34:13Z</time></trkpt>
<trkpt lat="56.340277" lon="-3.882634">
<ele>135</ele>
<time>2024-12-04T02:34:38Z</time></trkpt>
<trkpt lat="56.341022" lon="-3.882317">
<ele>130</ele>
<time>2024-12-04T02:35:09Z</time></trkpt>
<trkpt lat="56.342195" lon="-3.881932">
<ele>123</ele>
<time>2024-12-04T02:35:57Z</time></trkpt>
<trkpt lat="56.34276" lon="-3.882352">
<ele>121</ele>
<time>2024-12-04T02:36:21Z</time></trkpt>
<trkpt lat="56.34276" lon="-3.882352">
<ele>121</ele>
<time>2024-12-04T02:36:21Z</time></trkpt>
<trkpt lat="56.342893" lon="-3.882451">
<ele>121</ele>
<time>2024-12-04T02:36:27Z</time></trkpt>
<trkpt lat="56.343478" lon="-3.882672">
<ele>118</ele>
<time>2024-12-04T02:36:51Z</time></trkpt>
<trkpt lat="56.34377" lon="-3.882711">
<ele>115</ele>
<time>2024-12-04T02:37:03Z</time></trkpt>
<trkpt lat="56.344028" lon="-3.88294">
<ele>112</ele>
<time>2024-12-04T02:37:14Z</time></trkpt>
<trkpt lat="56.344621" lon="-3.88362">
<ele>105</ele>
<time>2024-12-04T02:37:42Z</time></trkpt>
<trkpt lat="56.345044" lon="-3.884276">
<ele>102</ele>
<time>2024-12-04T02:38:05Z</time></trkpt>
<trkpt lat="56.345255" lon="-3.884656">
<ele>100</ele>
<time>2024-12-04T02:38:17Z</time></trkpt>
<trkpt lat="56.345799" lon="-3.881806">
<ele>82</ele>
<time>2024-12-04T02:39:24Z</time></trkpt>
<trkpt lat="56.3467" lon="-3.880497">
<ele>75</ele>
<time>2024-12-04T02:40:10Z</time></trkpt>
<trkpt lat="56.348245" lon="-3.875934">
<ele>70</ele>
<time>2024-12-04T02:42:09Z</time></trkpt>
<trkpt lat="56.350802" lon="-3.877673">
<ele>60</ele>
<time>2024-12-04T02:43:58Z</time></trkpt>
<trkpt lat="56.351728" lon="-3.876446">
<ele>57</ele>
<time>2024-12-04T02:44:44Z</time></trkpt>
<trkpt lat="56.352131" lon="-3.874869">
<ele>53</ele>
<time>2024-12-04T02:45:23Z</time></trkpt>
<trkpt lat="56.352354" lon="-3.874561">
<ele>51</ele>
<time>2024-12-04T02:45:34Z</time></trkpt>
<trkpt lat="56.352927" lon="-3.874243">
<ele>50</ele>
<time>2024-12-04T02:45:58Z</time></trkpt>
<trkpt lat="56.353256" lon="-3.873874">
<ele>50</ele>
<time>2024-12-04T02:46:14Z</time></trkpt>
<trkpt lat="56.353477" lon="-3.873359">
<ele>51</ele>
<time>2024-12-04T02:46:28Z</time></trkpt>
<trkpt lat="56.353975" lon="-3.872794">
<ele>54</ele>
<time>2024-12-04T02:46:52Z</time></trkpt>
<trkpt lat="56.354331" lon="-3.872149">
<ele>55</ele>
<time>2024-12-04T02:47:12Z</time></trkpt>
<trkpt lat="56.354565" lon="-3.871482">
<ele>56</ele>
<time>2024-12-04T02:47:29Z</time></trkpt>
<trkpt lat="56.35491" lon="-3.869395">
<ele>55</ele>
<time>2024-12-04T02:48:18Z</time></trkpt>
<trkpt lat="56.354954" lon="-3.867896">
<ele>51</ele>
<time>2024-12-04T02:48:51Z</time></trkpt>
<trkpt lat="56.355378" lon="-3.863051">
<ele>47</ele>
<time>2024-12-04T02:50:40Z</time></trkpt>
<trkpt lat="56.35921" lon="-3.852338">
<ele>44</ele>
<time>2024-12-04T02:55:23Z</time></trkpt>
<trkpt lat="56.359674" lon="-3.850983">
<ele>42</ele>
<time>2024-12-04T02:55:58Z</time></trkpt>
<trkpt lat="56.359694" lon="-3.850795">
<ele>41</ele>
<time>2024-12-04T02:56:03Z</time></trkpt>
<trkpt lat="56.35967" lon="-3.850597">
<ele>40</ele>
<time>2024-12-04T02:56:07Z</time></trkpt>
<trkpt lat="56.35967" lon="-3.850597">
<ele>40</ele>
<time>2024-12-04T02:56:07Z</time></trkpt>
<trkpt lat="56.359479" lon="-3.849519">
<ele>39</ele>
<time>2024-12-04T02:56:32Z</time></trkpt>
<trkpt lat="56.364037" lon="-3.851712">
<ele>37</ele>
<time>2024-12-04T02:59:41Z</time></trkpt>
<trkpt lat="56.364949" lon="-3.852126">
<ele>39</ele>
<time>2024-12-04T03:00:19Z</time></trkpt>
<trkpt lat="56.366215" lon="-3.852794">
<ele>36</ele>
<time>2024-12-04T03:01:12Z</time></trkpt>
<trkpt lat="56.366199" lon="-3.853112">
<ele>36</ele>
<time>2024-12-04T03:01:19Z</time></trkpt>
<trkpt lat="56.366235" lon="-3.853633">
<ele>37</ele>
<time>2024-12-04T03:01:31Z</time></trkpt>
<trkpt lat="56.366493" lon="-3.855395">
<ele>39</ele>
<time>2024-12-04T03:02:11Z</time></trkpt>
<trkpt lat="56.366493" lon="-3.855395">
<ele>39</ele>
<time>2024-12-04T03:02:11Z</time></trkpt>
<trkpt lat="56.366579" lon="-3.855842">
<ele>40</ele>
<time>2024-12-04T03:02:22Z</time></trkpt>
<trkpt lat="56.366899" lon="-3.856603">
<ele>41</ele>
<time>2024-12-04T03:02:43Z</time></trkpt>
<trkpt lat="56.367212" lon="-3.857076">
<ele>42</ele>
<time>2024-12-04T03:02:59Z</time></trkpt>
<trkpt lat="56.367499" lon="-3.857565">
<ele>41</ele>
<time>2024-12-04T03:03:15Z</time></trkpt>
<trkpt lat="56.367623" lon="-3.857848">
<ele>42</ele>
<time>2024-12-04T03:03:23Z</time></trkpt>
<trkpt lat="56.36768" lon="-3.858052">
<ele>42</ele>
<time>2024-12-04T03:03:28Z</time></trkpt>
<trkpt lat="56.367746" lon="-3.858382">
<ele>44</ele>
<time>2024-12-04T03:03:36Z</time></trkpt>
<trkpt lat="56.367776" lon="-3.858622">
<ele>45</ele>
<time>2024-12-04T03:03:41Z</time></trkpt>
<trkpt lat="56.367909" lon="-3.861149">
<ele>50</ele>
<time>2024-12-04T03:04:38Z</time></trkpt>
<trkpt lat="56.368012" lon="-3.861966">
<ele>52</ele>
<time>2024-12-04T03:04:56Z</time></trkpt>
<trkpt lat="56.368088" lon="-3.86235">
<ele>52</ele>
<time>2024-12-04T03:05:05Z</time></trkpt>
<trkpt lat="56.368243" lon="-3.862842">
<ele>52</ele>
<time>2024-12-04T03:05:18Z</time></trkpt>
<trkpt lat="56.368952" lon="-3.864843">
<ele>55</ele>
<time>2024-12-04T03:06:11Z</time></trkpt>
<trkpt lat="56.36913" lon="-3.865459">
<ele>56</ele>
<time>2024-12-04T03:06:26Z</time></trkpt>
<trkpt lat="56.369584" lon="-3.867459">
<ele>59</ele>
<time>2024-12-04T03:07:14Z</time></trkpt>
<trkpt lat="56.369652" lon="-3.867806">
<ele>60</ele>
<time>2024-12-04T03:07:22Z</time></trkpt>
<trkpt lat="56.369698" lon="-3.868122">
<ele>61</ele>
<time>2024-12-04T03:07:29Z</time></trkpt>
<trkpt lat="56.369717" lon="-3.868376">
<ele>62</ele>
<time>2024-12-04T03:07:35Z</time></trkpt>
<trkpt lat="56.369678" lon="-3.869244">
<ele>66</ele>
<time>2024-12-04T03:07:54Z</time></trkpt>
<trkpt lat="56.369695" lon="-3.869476">
<ele>66</ele>
<time>2024-12-04T03:08:00Z</time></trkpt>
<trkpt lat="56.369834" lon="-3.870309">
<ele>68</ele>
<time>2024-12-04T03:08:19Z</time></trkpt>
<trkpt lat="56.369883" lon="-3.870697">
<ele>68</ele>
<time>2024-12-04T03:08:28Z</time></trkpt>
<trkpt lat="56.369888" lon="-3.870964">
<ele>69</ele>
<time>2024-12-04T03:08:34Z</time></trkpt>
<trkpt lat="56.369848" lon="-3.871241">
<ele>70</ele>
<time>2024-12-04T03:08:40Z</time></trkpt>
<trkpt lat="56.369321" lon="-3.873621">
<ele>79</ele>
<time>2024-12-04T03:09:37Z</time></trkpt>
<trkpt lat="56.369232" lon="-3.873852">
<ele>80</ele>
<time>2024-12-04T03:09:43Z</time></trkpt>
<trkpt lat="56.368965" lon="-3.874397">
<ele>80</ele>
<time>2024-12-04T03:09:59Z</time></trkpt>
<trkpt lat="56.36885" lon="-3.874702">
<ele>81</ele>
<time>2024-12-04T03:10:07Z</time></trkpt>
<trkpt lat="56.36875" lon="-3.875059">
<ele>82</ele>
<time>2024-12-04T03:10:16Z</time></trkpt>
<trkpt lat="56.368698" lon="-3.875482">
<ele>82</ele>
<time>2024-12-04T03:10:26Z</time></trkpt>
<trkpt lat="56.368636" lon="-3.876601">
<ele>84</ele>
<time>2024-12-04T03:10:51Z</time></trkpt>
<trkpt lat="56.368589" lon="-3.877164">
<ele>85</ele>
<time>2024-12-04T03:11:04Z</time></trkpt>
<trkpt lat="56.368511" lon="-3.87756">
<ele>85</ele>
<time>2024-12-04T03:11:13Z</time></trkpt>
<trkpt lat="56.368357" lon="-3.878109">
<ele>84</ele>
<time>2024-12-04T03:11:27Z</time></trkpt>
<trkpt lat="56.367642" lon="-3.880196">
<ele>79</ele>
<time>2024-12-04T03:12:21Z</time></trkpt>
<trkpt lat="56.367473" lon="-3.880605">
<ele>78</ele>
<time>2024-12-04T03:12:32Z</time></trkpt>
<trkpt lat="56.367281" lon="-3.880889">
<ele>79</ele>
<time>2024-12-04T03:12:42Z</time></trkpt>
<trkpt lat="56.367135" lon="-3.881195">
<ele>79</ele>
<time>2024-12-04T03:12:51Z</time></trkpt>
<trkpt lat="56.367059" lon="-3.881471">
<ele>78</ele>
<time>2024-12-04T03:12:58Z</time></trkpt>
<trkpt lat="56.366982" lon="-3.882065">
<ele>79</ele>
<time>2024-12-04T03:13:12Z</time></trkpt>
<trkpt lat="56.366917" lon="-3.882339">
<ele>79</ele>
<time>2024-12-04T03:13:18Z</time></trkpt>
<trkpt lat="56.366779" lon="-3.882657">
<ele>79</ele>
<time>2024-12-04T03:13:27Z</time></trkpt>
<trkpt lat="56.366325" lon="-3.88352">
<ele>77</ele>
<time>2024-12-04T03:13:54Z</time></trkpt>
<trkpt lat="56.366244" lon="-3.883778">
<ele>76</ele>
<time>2024-12-04T03:14:00Z</time></trkpt>
<trkpt lat="56.366136" lon="-3.884251">
<ele>75</ele>
<time>2024-12-04T03:14:12Z</time></trkpt>
<trkpt lat="56.365735" lon="-3.886693">
<ele>71</ele>
<time>2024-12-04T03:15:08Z</time></trkpt>
<trkpt lat="56.365523" lon="-3.888371">
<ele>68</ele>
<time>2024-12-04T03:15:46Z</time></trkpt>
<trkpt lat="56.365439" lon="-3.888881">
<ele>68</ele>
<time>2024-12-04T03:15:58Z</time></trkpt>
<trkpt lat="56.364999" lon="-3.891014">
<ele>68</ele>
<time>2024-12-04T03:16:49Z</time></trkpt>
<trkpt lat="56.364797" lon="-3.891788">
<ele>68</ele>
<time>2024-12-04T03:17:08Z</time></trkpt>
<trkpt lat="56.364769" lon="-3.891984">
<ele>68</ele>
<time>2024-12-04T03:17:12Z</time></trkpt>
<trkpt lat="56.364738" lon="-3.893959">
<ele>67</ele>
<time>2024-12-04T03:17:56Z</time></trkpt>
<trkpt lat="56.364586" lon="-3.899349">
<ele>68</ele>
<time>2024-12-04T03:19:56Z</time></trkpt>
<trkpt lat="56.364554" lon="-3.899587">
<ele>69</ele>
<time>2024-12-04T03:20:01Z</time></trkpt>
<trkpt lat="56.36448" lon="-3.899815">
<ele>69</ele>
<time>2024-12-04T03:20:07Z</time></trkpt>
<trkpt lat="56.364167" lon="-3.900353">
<ele>69</ele>
<time>2024-12-04T03:20:24Z</time></trkpt>
<trkpt lat="56.364073" lon="-3.90061">
<ele>69</ele>
<time>2024-12-04T03:20:31Z</time></trkpt>
<trkpt lat="56.364053" lon="-3.90083">
<ele>69</ele>
<time>2024-12-04T03:20:36Z</time></trkpt>
<trkpt lat="56.364075" lon="-3.901069">
<ele>69</ele>
<time>2024-12-04T03:20:42Z</time></trkpt>
<trkpt lat="56.36416" lon="-3.901412">
<ele>68</ele>
<time>2024-12-04T03:20:50Z</time></trkpt>
<trkpt lat="56.364228" lon="-3.902095">
<ele>68</ele>
<time>2024-12-04T03:21:05Z</time></trkpt>
<trkpt lat="56.364268" lon="-3.902779">
<ele>67</ele>
<time>2024-12-04T03:21:21Z</time></trkpt>
<trkpt lat="56.364339" lon="-3.904328">
<ele>66</ele>
<time>2024-12-04T03:21:55Z</time></trkpt>
<trkpt lat="56.364506" lon="-3.909849">
<ele>66</ele>
<time>2024-12-04T03:23:58Z</time></trkpt>
<trkpt lat="56.364489" lon="-3.910572">
<ele>67</ele>
<time>2024-12-04T03:24:14Z</time></trkpt>
<trkpt lat="56.364386" lon="-3.911854">
<ele>67</ele>
<time>2024-12-04T03:24:43Z</time></trkpt>
<trkpt lat="56.364386" lon="-3.911854">
<ele>67</ele>
<time>2024-12-04T03:24:43Z</time></trkpt>
<trkpt lat="56.364206" lon="-3.914115">
<ele>64</ele>
<time>2024-12-04T03:25:33Z</time></trkpt>
<trkpt lat="56.364212" lon="-3.914317">
<ele>63</ele>
<time>2024-12-04T03:25:38Z</time></trkpt>
<trkpt lat="56.364278" lon="-3.914598">
<ele>62</ele>
<time>2024-12-04T03:25:45Z</time></trkpt>
<trkpt lat="56.364975" lon="-3.916622">
<ele>59</ele>
<time>2024-12-04T03:26:38Z</time></trkpt>
<trkpt lat="56.365018" lon="-3.916897">
<ele>59</ele>
<time>2024-12-04T03:26:44Z</time></trkpt>
<trkpt lat="56.365186" lon="-3.918602">
<ele>57</ele>
<time>2024-12-04T03:27:22Z</time></trkpt>
<trkpt lat="56.365236" lon="-3.918811">
<ele>57</ele>
<time>2024-12-04T03:27:27Z</time></trkpt>
<trkpt lat="56.36536" lon="-3.919109">
<ele>57</ele>
<time>2024-12-04T03:27:36Z</time></trkpt>
<trkpt lat="56.365964" lon="-3.92017">
<ele>59</ele>
<time>2024-12-04T03:28:09Z</time></trkpt>
<trkpt lat="56.366193" lon="-3.920707">
<ele>59</ele>
<time>2024-12-04T03:28:24Z</time></trkpt>
<trkpt lat="56.366337" lon="-3.920916">
<ele>59</ele>
<time>2024-12-04T03:28:32Z</time></trkpt>
<trkpt lat="56.366457" lon="-3.921014">
<ele>60</ele>
<time>2024-12-04T03:28:37Z</time></trkpt>
<trkpt lat="56.366589" lon="-3.921081">
<ele>60</ele>
<time>2024-12-04T03:28:43Z</time></trkpt>
<trkpt lat="56.366981" lon="-3.921239">
<ele>60</ele>
<time>2024-12-04T03:28:59Z</time></trkpt>
<trkpt lat="56.367437" lon="-3.921382">
<ele>61</ele>
<time>2024-12-04T03:29:17Z</time></trkpt>
<trkpt lat="56.36768" lon="-3.921535">
<ele>63</ele>
<time>2024-12-04T03:29:28Z</time></trkpt>
<trkpt lat="56.367907" lon="-3.921726">
<ele>66</ele>
<time>2024-12-04T03:29:38Z</time></trkpt>
<trkpt lat="56.368183" lon="-3.922098">
<ele>68</ele>
<time>2024-12-04T03:29:51Z</time></trkpt>
<trkpt lat="56.368374" lon="-3.922438">
<ele>67</ele>
<time>2024-12-04T03:30:02Z</time></trkpt>
<trkpt lat="56.368456" lon="-3.922814">
<ele>67</ele>
<time>2024-12-04T03:30:11Z</time></trkpt>
<trkpt lat="56.368549" lon="-3.923069">
<ele>67</ele>
<time>2024-12-04T03:30:18Z</time></trkpt>
<trkpt lat="56.369184" lon="-3.923766">
<ele>58</ele>
<time>2024-12-04T03:30:48Z</time></trkpt>
<trkpt lat="56.369591" lon="-3.92458">
<ele>52</ele>
<time>2024-12-04T03:31:12Z</time></trkpt>
<trkpt lat="56.37018" lon="-3.927991">
<ele>49</ele>
<time>2024-12-04T03:32:31Z</time></trkpt>
<trkpt lat="56.370231" lon="-3.928722">
<ele>47</ele>
<time>2024-12-04T03:32:48Z</time></trkpt>
<trkpt lat="56.370164" lon="-3.929211">
<ele>50</ele>
<time>2024-12-04T03:32:59Z</time></trkpt>
<trkpt lat="56.370077" lon="-3.929687">
<ele>49</ele>
<time>2024-12-04T03:33:10Z</time></trkpt>
<trkpt lat="56.36975" lon="-3.930857">
<ele>54</ele>
<time>2024-12-04T03:33:39Z</time></trkpt>
<trkpt lat="56.369406" lon="-3.932227">
<ele>57</ele>
<time>2024-12-04T03:34:12Z</time></trkpt>
<trkpt lat="56.369371" lon="-3.932547">
<ele>56</ele>
<time>2024-12-04T03:34:20Z</time></trkpt>
<trkpt lat="56.369404" lon="-3.933036">
<ele>54</ele>
<time>2024-12-04T03:34:31Z</time></trkpt>
<trkpt lat="56.369488" lon="-3.933645">
<ele>51</ele>
<time>2024-12-04T03:34:45Z</time></trkpt>
<trkpt lat="56.369502" lon="-3.934017">
<ele>50</ele>
<time>2024-12-04T03:34:53Z</time></trkpt>
<trkpt lat="56.369341" lon="-3.935469">
<ele>52</ele>
<time>2024-12-04T03:35:26Z</time></trkpt>
<trkpt lat="56.369317" lon="-3.936373">
<ele>51</ele>
<time>2024-12-04T03:35:46Z</time></trkpt>
<trkpt lat="56.369246" lon="-3.937454">
<ele>52</ele>
<time>2024-12-04T03:36:10Z</time></trkpt>
<trkpt lat="56.368741" lon="-3.940436">
<ele>55</ele>
<time>2024-12-04T03:37:19Z</time></trkpt>
<trkpt lat="56.368457" lon="-3.941677">
<ele>53</ele>
<time>2024-12-04T03:37:49Z</time></trkpt>
<trkpt lat="56.368343" lon="-3.941999">
<ele>52</ele>
<time>2024-12-04T03:37:57Z</time></trkpt>
<trkpt lat="56.368234" lon="-3.942422">
<ele>54</ele>
<time>2024-12-04T03:38:08Z</time></trkpt>
<trkpt lat="56.368225" lon="-3.943201">
<ele>55</ele>
<time>2024-12-04T03:38:25Z</time></trkpt>
<trkpt lat="56.368131" lon="-3.945784">
<ele>56</ele>
<time>2024-12-04T03:39:23Z</time></trkpt>
<trkpt lat="56.367823" lon="-3.947478">
<ele>58</ele>
<time>2024-12-04T03:40:02Z</time></trkpt>
<trkpt lat="56.367516" lon="-3.948834">
<ele>58</ele>
<time>2024-12-04T03:40:35Z</time></trkpt>
<trkpt lat="56.367711" lon="-3.952844">
<ele>56</ele>
<time>2024-12-04T03:42:04Z</time></trkpt>
<trkpt lat="56.367571" lon="-3.963775">
<ele>58</ele>
<time>2024-12-04T03:46:07Z</time></trkpt>
<trkpt lat="56.367544" lon="-3.964787">
<ele>58</ele>
<time>2024-12-04T03:46:29Z</time></trkpt>
<trkpt lat="56.367415" lon="-3.965806">
<ele>58</ele>
<time>2024-12-04T03:46:52Z</time></trkpt>
<trkpt lat="56.367029" lon="-3.966643">
<ele>58</ele>
<time>2024-12-04T03:47:17Z</time></trkpt>
<trkpt lat="56.366612" lon="-3.967225">
<ele>59</ele>
<time>2024-12-04T03:47:38Z</time></trkpt>
<trkpt lat="56.366101" lon="-3.968248">
<ele>59</ele>
<time>2024-12-04T03:48:08Z</time></trkpt>
<trkpt lat="56.365836" lon="-3.969457">
<ele>59</ele>
<time>2024-12-04T03:48:37Z</time></trkpt>
<trkpt lat="56.365836" lon="-3.969457">
<ele>59</ele>
<time>2024-12-04T03:48:37Z</time></trkpt>
<trkpt lat="56.365792" lon="-3.969656">
<ele>58</ele>
<time>2024-12-04T03:48:42Z</time></trkpt>
<trkpt lat="56.365847" lon="-3.970008">
<ele>58</ele>
<time>2024-12-04T03:48:50Z</time></trkpt>
<trkpt lat="56.367978" lon="-3.976">
<ele>59</ele>
<time>2024-12-04T03:51:28Z</time></trkpt>
<trkpt lat="56.367978" lon="-3.976">
<ele>59</ele>
<time>2024-12-04T03:51:28Z</time></trkpt>
<trkpt lat="56.368084" lon="-3.976548">
<ele>59</ele>
<time>2024-12-04T03:51:41Z</time></trkpt>
<trkpt lat="56.368128" lon="-3.976938">
<ele>59</ele>
<time>2024-12-04T03:51:50Z</time></trkpt>
<trkpt lat="56.368136" lon="-3.977327">
<ele>59</ele>
<time>2024-12-04T03:51:58Z</time></trkpt>
<trkpt lat="56.369229" lon="-3.978181">
<ele>59</ele>
<time>2024-12-04T03:52:46Z</time></trkpt>
<trkpt lat="56.369229" lon="-3.978181">
<ele>59</ele>
<time>2024-12-04T03:52:46Z</time></trkpt>
<trkpt lat="56.371294" lon="-3.97988">
<ele>57</ele>
<time>2024-12-04T03:54:17Z</time></trkpt>
<trkpt lat="56.371713" lon="-3.980171">
<ele>57</ele>
<time>2024-12-04T03:54:35Z</time></trkpt>
<trkpt lat="56.3727" lon="-3.981008">
<ele>55</ele>
<time>2024-12-04T03:55:19Z</time></trkpt>
<trkpt lat="56.373451" lon="-3.98158">
<ele>54</ele>
<time>2024-12-04T03:55:51Z</time></trkpt>
<trkpt lat="56.373766" lon="-3.981877">
<ele>53</ele>
<time>2024-12-04T03:56:06Z</time></trkpt>
<trkpt lat="56.373766" lon="-3.981878">
<ele>53</ele>
<time>2024-12-04T03:56:06Z</time></trkpt>
<trkpt lat="56.373785" lon="-3.981895">
<ele>53</ele>
<time>2024-12-04T03:56:07Z</time></trkpt>
<trkpt lat="56.373826" lon="-3.982861">
<ele>53</ele>
<time>2024-12-04T03:56:28Z</time></trkpt>
<trkpt lat="56.373835" lon="-3.984717">
<ele>53</ele>
<time>2024-12-04T03:57:09Z</time></trkpt>
<trkpt lat="56.373753" lon="-3.985352">
<ele>53</ele>
<time>2024-12-04T03:57:24Z</time></trkpt>
<trkpt lat="56.373594" lon="-3.986089">
<ele>53</ele>
<time>2024-12-04T03:57:41Z</time></trkpt>
<trkpt lat="56.373466" lon="-3.986517">
<ele>54</ele>
<time>2024-12-04T03:57:52Z</time></trkpt>
<trkpt lat="56.373295" lon="-3.986834">
<ele>54</ele>
<time>2024-12-04T03:58:02Z</time></trkpt>
<trkpt lat="56.373272" lon="-3.986911">
<ele>54</ele>
<time>2024-12-04T03:58:04Z</time></trkpt>
<trkpt lat="56.373272" lon="-3.986911">
<ele>54</ele>
<time>2024-12-04T03:58:04Z</time></trkpt>
<trkpt lat="56.373257" lon="-3.986961">
<ele>54</ele>
<time>2024-12-04T03:58:05Z</time></trkpt>
<trkpt lat="56.371546" lon="-3.985526">
<ele>56</ele>
<time>2024-12-04T03:59:21Z</time></trkpt>
<trkpt lat="56.370714" lon="-3.984908">
<ele>58</ele>
<time>2024-12-04T03:59:57Z</time></trkpt>
<trkpt lat="56.369223" lon="-3.983691">
<ele>60</ele>
<time>2024-12-04T04:01:02Z</time></trkpt>
<trkpt lat="56.369223" lon="-3.983691">
<ele>60</ele>
<time>2024-12-04T04:01:02Z</time></trkpt>
<trkpt lat="56.368738" lon="-3.983282">
<ele>60</ele>
<time>2024-12-04T04:01:24Z</time></trkpt>
<trkpt lat="56.368486" lon="-3.983103">
<ele>60</ele>
<time>2024-12-04T04:01:35Z</time></trkpt>
<trkpt lat="56.36739" lon="-3.982221">
<ele>61</ele>
<time>2024-12-04T04:02:23Z</time></trkpt>
<trkpt lat="56.367314" lon="-3.982208">
<ele>62</ele>
<time>2024-12-04T04:02:26Z</time></trkpt>
<trkpt lat="56.367193" lon="-3.982244">
<ele>62</ele>
<time>2024-12-04T04:02:31Z</time></trkpt>
<trkpt lat="56.367097" lon="-3.982386">
<ele>62</ele>
<time>2024-12-04T04:02:36Z</time></trkpt>
<trkpt lat="56.367006" lon="-3.982766">
<ele>62</ele>
<time>2024-12-04T04:02:45Z</time></trkpt>
<trkpt lat="56.367006" lon="-3.982766">
<ele>62</ele>
<time>2024-12-04T04:02:45Z</time></trkpt>
<trkpt lat="56.366908" lon="-3.98318">
<ele>62</ele>
<time>2024-12-04T04:02:55Z</time></trkpt>
<trkpt lat="56.366663" lon="-3.983864">
<ele>62</ele>
<time>2024-12-04T04:03:13Z</time></trkpt>
<trkpt lat="56.366498" lon="-3.984201">
<ele>63</ele>
<time>2024-12-04T04:03:23Z</time></trkpt>
<trkpt lat="56.366305" lon="-3.984507">
<ele>63</ele>
<time>2024-12-04T04:03:33Z</time></trkpt>
<trkpt lat="56.366242" lon="-3.984654">
<ele>63</ele>
<time>2024-12-04T04:03:37Z</time></trkpt>
<trkpt lat="56.365903" lon="-3.985057">
<ele>64</ele>
<time>2024-12-04T04:03:54Z</time></trkpt>
<trkpt lat="56.365544" lon="-3.985208">
<ele>64</ele>
<time>2024-12-04T04:04:08Z</time></trkpt>
<trkpt lat="56.364299" lon="-3.985267">
<ele>66</ele>
<time>2024-12-04T04:04:58Z</time></trkpt>
<trkpt lat="56.364299" lon="-3.985267">
<ele>66</ele>
<time>2024-12-04T04:04:58Z</time></trkpt>
<trkpt lat="56.358642" lon="-3.985508">
<ele>72</ele>
<time>2024-12-04T04:08:45Z</time></trkpt>
<trkpt lat="56.358294" lon="-3.985564">
<ele>76</ele>
<time>2024-12-04T04:08:59Z</time></trkpt>
<trkpt lat="56.358033" lon="-3.985718">
<ele>77</ele>
<time>2024-12-04T04:09:10Z</time></trkpt>
<trkpt lat="56.357646" lon="-3.986244">
<ele>78</ele>
<time>2024-12-04T04:09:29Z</time></trkpt>
<trkpt lat="56.356954" lon="-3.986554">
<ele>82</ele>
<time>2024-12-04T04:09:58Z</time></trkpt>
<trkpt lat="56.356729" lon="-3.987263">
<ele>81</ele>
<time>2024-12-04T04:10:16Z</time></trkpt>
<trkpt lat="56.356725" lon="-3.987378">
<ele>80</ele>
<time>2024-12-04T04:10:19Z</time></trkpt>
<trkpt lat="56.356653" lon="-3.987705">
<ele>79</ele>
<time>2024-12-04T04:10:27Z</time></trkpt>
<trkpt lat="56.356441" lon="-3.988464">
<ele>80</ele>
<time>2024-12-04T04:10:45Z</time></trkpt>
<trkpt lat="56.356441" lon="-3.988464">
<ele>80</ele>
<time>2024-12-04T04:10:45Z</time></trkpt>
<trkpt lat="56.356287" lon="-3.988816">
<ele>80</ele>
<time>2024-12-04T04:10:55Z</time></trkpt>
<trkpt lat="56.35612" lon="-3.989069">
<ele>80</ele>
<time>2024-12-04T04:11:04Z</time></trkpt>
<trkpt lat="56.355463" lon="-3.98983">
<ele>80</ele>
<time>2024-12-04T04:11:35Z</time></trkpt>
<trkpt lat="56.355167" lon="-3.990215">
<ele>80</ele>
<time>2024-12-04T04:11:50Z</time></trkpt>
<trkpt lat="56.355167" lon="-3.990215">
<ele>80</ele>
<time>2024-12-04T04:11:50Z</time></trkpt>
<trkpt lat="56.354116" lon="-3.992068">
<ele>80</ele>
<time>2024-12-04T04:12:49Z</time></trkpt>
<trkpt lat="56.354116" lon="-3.992068">
<ele>80</ele>
<time>2024-12-04T04:12:49Z</time></trkpt>
<trkpt lat="56.354028" lon="-3.992224">
<ele>80</ele>
<time>2024-12-04T04:12:54Z</time></trkpt>
<trkpt lat="56.355359" lon="-3.993706">
<ele>78</ele>
<time>2024-12-04T04:13:57Z</time></trkpt>
</trkseg>
</trk>
</gpx>